STARLINK-1619           
1 46126C 20057K   22282.11229167  .00001923  00000-0  12882-3 0  2822
2 46126  53.0543 157.2243 0001546 106.3439 109.4391 15.06397733    19
STARLINK-1621           
1 46127C 20057L   22282.10326389  .00000433  00000-0  28984-4 0  2822
2 46127  53.0529 137.2484 0001571  87.9230 128.8311 15.06396060    19
STARLINK-1622           
1 46128C 20057M   22282.06506944 -.00012385  00000-0 -82973-3 0  2823
2 46128  53.0536 117.4125 0001469 106.4973 113.0306 15.06414274    15
STARLINK-1623           
1 46129C 20057N   22282.12201389  .00007214  00000-0  48338-3 0  2826
2 46129  53.0514 117.1714 0001468 107.8406 200.6888 15.06389450    13
STARLINK-1624           
1 46130C 20057P   22282.07270833  .00015500  00000-0  10384-2 0  2828
2 46130  53.0529 117.3829 0001310  81.1965 139.7931 15.06386994    11
STARLINK-1625           
1 46131C 20057Q   22282.08312500  .00014815  00000-0  99239-3 0  2823
2 46131  53.0516 137.3316 0001607  94.5692 112.9170 15.06392897    12
STARLINK-1630           
1 46132C 20057R   22282.12131944  .00017620  00000-0  11804-2 0  2828
2 46132  53.0525 157.1819 0001459 103.8443 100.8820 15.06385542    11
STARLINK-1637           
1 46133C 20057S   22282.05673611  .00011555  00000-0  77415-3 0  2825
2 46133  53.0539 117.4719 0001428 111.1597 103.1666 15.06389507    12
STARLINK-1638           
1 46134C 20057T   22282.06159722  .00009075  00000-0  60795-3 0  2826
2 46134  53.0543 117.4419 0001392 107.6034 118.2221 15.06395640    10
STARLINK-1639           
1 46135C 20057U   22282.07756944  .00009464  00000-0  63409-3 0  2824
2 46135  53.0534 117.3703 0001300  92.9476 134.4247 15.06388179    18
STARLINK-1643           
1 46136C 20057V   22282.12270833  .00000993  00000-0  66513-4 0  2827
2 46136  53.0522 147.1442 0001520  89.9488 122.4690 15.06400574    13
STARLINK-1586           
1 46137C 20057W   22282.07826389  .00000514  00000-0  34446-4 0  2824
2 46137  53.0531 137.3752 0001529  73.4601 147.6557 15.06399853    11
STARLINK-1590           
1 46138C 20057X   22282.12409722  .00015876  00000-0  10637-2 0  2820
2 46138  53.0536 157.1673 0001433 105.6805  14.1755 15.06383031    16
STARLINK-1594           
1 46140C 20057Z   22282.11923611 -.00012043  00000-0 -80682-3 0  2823
2 46140  53.0519 117.1669 0001356  72.7054 240.7477 15.06413931    16
STARLINK-1596           
1 46141C 20057AA  22282.08104167  .00016524  00000-0  11072-2 0  2829
2 46141  53.0527 117.3388 0001414  91.9419 134.2704 15.06379104    12
STARLINK-1597           
1 46142C 20057AB  22282.09701389  .00007566  00000-0  50689-3 0  2824
2 46142  53.0534 157.2869 0001469 111.4848 101.3471 15.06394657    18
STARLINK-1606           
1 46144C 20057AD  22282.10118056  .00022504  00000-0  15076-2 0  2820
2 46144  53.0521 137.2578 0001446  91.8634 333.6100 15.06381001    18
STARLINK-1608           
1 46146C 20057AF  22282.10812500  .00006738  00000-0  45149-3 0  2823
2 46146  53.0552 157.2434 0001410  91.1683 121.9954 15.06386926    11
STARLINK-1611           
1 46147C 20057AG  22282.12479167  .00015742  00000-0  10546-2 0  2821
2 46147  53.0522 157.1629 0001409 106.9878 296.5637 15.06387502    11
STARLINK-1616           
1 46148C 20057AH  22282.09423611  .00005892  00000-0  39474-3 0  2828
2 46148  53.0525 137.3019 0001462 113.5209  94.2513 15.06394182    17
STARLINK-1620           
1 46149C 20057AJ  22282.11020833  .00003017  00000-0  20212-3 0  2828
2 46149  53.0533 137.2216 0001465  94.7081 124.8512 15.06396898    11
STARLINK-1629           
1 46150C 20057AK  22282.10465278  .00017459  00000-0  11696-2 0  2825
2 46150  53.0542 157.2502 0001555  92.5541 121.7548 15.06387870    15
STARLINK-1631           
1 46151C 20057AL  22282.07965278  .00026107  00000-0  17492-2 0  2827
2 46151  53.0524 137.3492 0001286 109.8627  98.8269 15.06372600    10
STARLINK-1634           
1 46152C 20057AM  22282.12270833  .00010191  00000-0  68283-3 0  2821
2 46152  53.0525 157.1740 0001305  98.4055  73.9018 15.06387713    15
STARLINK-1636           
1 46153C 20057AN  22282.09909722  .00012748  00000-0  85399-3 0  2821
2 46153  53.0514 137.2710 0001421 106.9276 107.2350 15.06392933    19
STARLINK-1642           
1 46154C 20057AP  22282.10951389 -.00000303  00000-0 -20305-4 0  2823
2 46154  53.0521 147.2271 0001404  98.8039 116.9168 15.06398730    13
STARLINK-1667           
1 46155C 20057AQ  22282.06854167  .00002930  00000-0  19632-3 0  2821
2 46155  53.0529 117.4153 0001565  91.1006 127.2523 15.06400510    18
STARLINK-1545           
1 46156C 20057AR  22282.12618056 -.00002415  00000-0 -16178-3 0  2826
2 46156  53.0548 137.1619 0001324  91.3823 129.7546 15.06405697    11
STARLINK-1587           
1 46157C 20057AS  22282.13034722 -.00007382  00000-0 -49443-3 0  2829
2 46157  53.0523 117.1439 0001451  62.6140 250.9911 15.06419259    19
STARLINK-1589           
1 46158C 20057AT  22282.12756944 -.00006378  00000-0 -42737-3 0  2829
2 46158  53.0511 117.1503 0001428  95.7743 222.8750 15.06404694    15
STARLINK-1595           
1 46159C 20057AU  22282.13173611  .00003008  00000-0  20150-3 0  2825
2 46159  53.0533 157.1363 0001243  95.9504  25.3431 15.06397083    15
STARLINK-1598           
1 46160C 20057AV  22282.07409722  .00017436  00000-0  11681-2 0  2823
2 46160  53.0533 137.3813 0001327  97.1565 121.3918 15.06386888    19
STARLINK-1600           
1 46161C 20057AW  22282.11784722  .00013558  00000-0  90835-3 0  2825
2 46161  53.0533 137.1823 0001379 101.2851 114.6307 15.06386267    19
STARLINK-1603           
1 46162C 20057AX  22282.12340278  .00011303  00000-0  75730-3 0  2824
2 46162  53.0529 137.1751 0001421 104.4553 121.6108 15.06387279    18
STARLINK-1610           
1 46163C 20057AY  22282.12618056 -.00000938  00000-0 -62864-4 0  2826
2 46163  53.0535 117.1475 0001479 101.1430 149.9189 15.06404839    12
STARLINK-1612           
1 46164C 20057AZ  22282.12131944 -.00003170  00000-0 -21243-3 0  2829
2 46164  53.0538 117.1645 0001474  89.1412 155.5871 15.06397645    12
STARLINK-1613           
1 46165C 20057BA  22282.12409722  .00044666  00000-0  22037-2 0  2826
2 46165  53.0539 146.9452 0002231 178.9299 247.6237 15.17346729    10
STARLINK-1615           
1 46166C 20057BB  22282.10118056  .00010677  00000-0  71536-3 0  2826
2 46166  53.0541 157.2701 0001442 106.4417 109.0119 15.06388521    11
STARLINK-1626           
1 46167C 20057BC  22282.11645833  .00027855  00000-0  18663-2 0  2823
2 46167  53.0529 157.1852 0001311 108.0789 110.3071 15.06371765    13
STARLINK-1627           
1 46168C 20057BD  22282.12548611  .00003578  00000-0  23973-3 0  2828
2 46168  53.0529 107.2363 0001402  93.6477 288.6592 15.06399540    19
STARLINK-1628           
1 46169C 20057BE  22282.12618056  .00005085  00000-0  34825-3 0  2823
2 46169  52.9995 157.1403 0001496 122.0866  83.5864 15.05582693    12
STARLINK-1633           
1 46171C 20057BG  22282.09076389  .00008138  00000-0  54526-3 0  2821
2 46171  53.0525 137.3055 0001362  90.7017 118.2615 15.06389128    19
STARLINK-1635           
1 46172C 20057BH  22282.10673611  .00015034  00000-0  10073-2 0  2826
2 46172  53.0531 137.2262 0001327 100.9262 114.6843 15.06383281    10
STARLINK-1640           
1 46173C 20057BJ  22282.12340278  .00002394  00000-0  16039-3 0  2823
2 46173  53.0520 157.1634 0001315  97.5993 318.4486 15.06397579    14
STARLINK-1641           
1 46174C 20057BK  22282.09284722  .00011961  00000-0  80137-3 0  2821
2 46174  53.0524 157.3003 0001409  89.2891 120.9476 15.06387957    14
STARLINK-1734           
1 46325C 20062A   22282.10326389  .00018913  00000-0  12676-2 0  2829
2 46325  53.0528 172.2633 0001469  79.1050 125.1905 15.06369291    17
STARLINK-1654           
1 46326C 20062B   22282.12409722  .00004722  00000-0  31643-3 0  2824
2 46326  53.0524 217.4106 0001257  77.2007 252.4932 15.06391257    18
STARLINK-1673           
1 46327C 20062C   22282.09979167 -.00005068  00000-0 -33967-3 0  2823
2 46327  53.0530 217.2627 0001295  95.9256 342.0587 15.06392312    12
STARLINK-1686           
1 46328C 20062D   22282.12409722 -.00002654  00000-0 -17785-3 0  2821
2 46328  53.0536 197.1720 0001513  85.8386 234.0182 15.06401956    10
STARLINK-1695           
1 46329C 20062E   22282.12548611 -.00002105  00000-0 -14106-3 0  2828
2 46329  53.0548 197.1645 0001229  88.5839  58.7647 15.06399943    16
STARLINK-1710           
1 46330C 20062F   22282.11506944  .00010303  00000-0  69025-3 0  2829
2 46330  53.0539 197.1935 0001460  96.1606  54.6602 15.06392697    19
STARLINK-1719           
1 46331C 20062G   22282.11645833  .00000263  00000-0  17630-4 0  2821
2 46331  53.0537 217.1824 0001469 100.2351 228.1130 15.06400030    16
STARLINK-1721           
1 46332C 20062H   22282.12409722  .00013388  00000-0  89680-3 0  2823
2 46332  53.0538 217.1692 0001371  86.6610 223.1610 15.06394531    14
STARLINK-1723           
1 46333C 20062J   22282.09562500 -.00004674  00000-0 -31321-3 0  2823
2 46333  53.0528 217.2873 0001498  63.6698  11.7098 15.06396295    17
STARLINK-1725           
1 46334C 20062K   22282.10048611  .00008506  00000-0  56983-3 0  2825
2 46334  53.0543 197.5443 0001501 100.4464 351.0589 15.06397061    11
STARLINK-1727           
1 46335C 20062L   22282.10326389  .00014259  00000-0  95536-3 0  2826
2 46335  53.0544 217.2653 0001329  67.2033 249.5824 15.06384991    17
STARLINK-1738           
1 46336C 20062N   22282.11993056  .00011181  00000-0  74916-3 0  2829
2 46336  53.0532 197.1677 0001196  83.5703  13.6604 15.06386013    17
STARLINK-1750           
1 46337C 20062P   22282.11854167  .00011210  00000-0  75102-3 0  2820
2 46337  53.0547 197.1943 0001304  72.6331 297.0372 15.06391553    12
STARLINK-1752           
1 46338C 20062Q   22282.11506944  .00016081  00000-0  10773-2 0  2821
2 46338  53.0540 217.2126 0001274  74.5037   6.3589 15.06388742    10
